STARLINK-38033          
1 69739U 26150A   26193.16668980 -.00093705  00000+0 -49236-3 0  9995
2 69739  97.2848  31.3541 0001411  89.2126 236.6768 15.80875877  2811
STARLINK-38076          
1 69740U 26150B   26193.16668980 -.00202834  00000+0 -13856-2 0  9990
2 69740  97.2841  31.3355 0000886  95.3702 186.0459 15.75289642  2810
STARLINK-38074          
1 69741U 26150C   26193.16668980 -.00104416  00000+0 -54921-3 0  9997
2 69741  97.2849  31.3605 0001387  78.9391 261.6232 15.80883297  2816
STARLINK-38041          
1 69742U 26150D   26193.16668980 -.00115047  00000+0 -60584-3 0  9992
2 69742  97.2847  31.3624 0001034 114.8019 229.7069 15.80887815  2815
STARLINK-38087          
1 69743U 26150E   26193.16668980 -.00107169  00000+0 -56387-3 0  9995
2 69743  97.2846  31.3635 0001413  88.9974 260.1576 15.80883814  2816
STARLINK-38078          
1 69744U 26150F   26193.16668980 -.00109773  00000+0 -57773-3 0  9999
2 69744  97.2848  31.3651 0001243  83.6868 269.7392 15.80885620  2810
STARLINK-38047          
1 69745U 26150G   26193.16668980 -.00116783  00000+0 -61508-3 0  9990
2 69745  97.2847  31.3677 0001215  86.2184 271.7608 15.80888457  2811
STARLINK-38046          
1 69746U 26150H   26193.16668980 -.00124549  00000+0 -65636-3 0  9996
2 69746  97.2852  31.3726 0001294  97.5365 271.3640 15.80896578  2811
STARLINK-38067          
1 69747U 26150J   26193.16668980 -.00197611  00000+0 -13493-2 0  9990
2 69747  97.2848  31.3636 0000928  96.1691 251.2414 15.75286189  2818
STARLINK-37988          
1 69748U 26150K   26193.16668980 -.00230305  00000+0 -15788-2 0  9998
2 69748  97.2849  31.3683 0001267  83.7657 273.6670 15.75281848  2812
STARLINK-37987          
1 69749U 26150L   26193.16668980 -.02178855  00000+0 -14819-1 0  9995
2 69749  97.2847  31.3758 0001433  81.3117 297.2719 15.77885859  2814
STARLINK-38037          
1 69750U 26150M   26193.16668980 -.00115256  00000+0 -60699-3 0  9990
2 69750  97.2848  31.3842 0001242 105.9234 288.9829 15.80885928  2812
STARLINK-38049          
1 69751U 26150N   26193.16668980 -.00110080  00000+0 -57944-3 0  9990
2 69751  97.2847  31.3859 0001342  98.3740 302.3197 15.80882412  2812
STARLINK-38029          
1 69752U 26150P   26193.16668980 -.00114418  00000+0 -60246-3 0  9999
2 69752  97.2846  31.4011 0001315  97.5629 335.8315 15.80887765  2819
STARLINK-37965          
1 69753U 26150Q   26193.16668980 -.01985295  00000+0 -13154-1 0  9994
2 69753  97.2843  31.3987 0001730  73.9023 358.4192 15.78695186  2810
STARLINK-38048          
1 69754U 26150R   26193.16668980 -.00098753  00000+0 -51914-3 0  9996
2 69754  97.2842  31.4020 0001292  82.1783 353.3300 15.80879980  2811
STARLINK-38006          
1 69755U 26150S   26193.16668980 -.00124943  00000+0 -65867-3 0  9990
2 69755  97.2842  31.4084 0000923  91.5573 359.5534 15.80890948  2817
STARLINK-38036          
1 69756U 26150T   26193.16668980 -.00116486  00000+0 -61359-3 0  9996
2 69756  97.2845  31.4123 0001238  94.3117   4.4821 15.80885202  2812
STARLINK-38058          
1 69757U 26150U   26193.16668980 -.00104806  00000+0 -55136-3 0  9996
2 69757  97.2845  31.4128 0001092  89.8152  10.4182 15.80881491  2817
STARLINK-38066          
1 69758U 26150V   26193.16668980 -.00135420  00000+0 -71461-3 0  9992
2 69758  97.2844  31.4131 0001457  86.2340  14.8509 15.80895930  2810
STARLINK-38035          
1 69759U 26150W   26193.16668980 -.00194732  00000+0 -10324-2 0  9994
2 69759  97.2844  31.4135 0001117  80.5353  21.2084 15.80949705  2819
STARLINK-38056          
1 69760U 26150X   26193.16668980 -.00127119  00000+0 -67017-3 0  9993
2 69760  97.2840  31.4221 0001294  93.6376  27.8121 15.80895044  2819
STARLINK-38069          
1 69761U 26150Y   26193.16668980 -.00112685  00000+0 -59327-3 0  9991
2 69761  97.2839  31.4308 0001424  93.5923  47.5288 15.80885284  2814
STARLINK-38019          
1 69762U 26150Z   26193.16668980 -.01023733  00000+0 -73888-2 0  9995
2 69762  97.2844  31.4271 0001125  59.9996  73.1344 15.75815056  2816
KUIPER-00258            
1 69763U 26151A   26193.16668980 -.00014456  00000+0 -40234-3 0  9998
2 69763  51.8672 195.1592 0011663 158.6206 333.6737 15.35430035  1911
KUIPER-00526            
1 69764U 26151B   26193.16668980 -.00016921  00000+0 -44607-3 0  9996
2 69764  51.8763 195.0344 0006147 129.7215  64.2443 15.37292005  1676
KUIPER-00558            
1 69765U 26151C   26193.16668980 -.00017600  00000+0 -47199-3 0  9991
2 69765  51.8756 195.0691 0007714 141.0580  36.0885 15.36783708  2152
KUIPER-00569            
1 69766U 26151D   26193.16668980 -.00017209  00000+0 -45177-3 0  9991
2 69766  51.8786 195.0188 0005194 127.5530  73.0535 15.37442497  1308
KUIPER-00589            
1 69767U 26151E   26193.16668980 -.00016775  00000+0 -44084-3 0  9995
2 69767  51.8754 195.0282 0005469 133.0280  64.3333 15.37386782  2188
KUIPER-00598            
1 69768U 26151F   26193.16668980 -.00025221  00000+0 -71265-3 0  9993
2 69768  51.8638 195.1475 0009606 156.1783 341.0449 15.35392433  2097
