OBJECT_NAME,OBJECT_ID,EPOCH,MEAN_MOTION,ECCENTRICITY,INCLINATION,RA_OF_ASC_NODE,ARG_OF_PERICENTER,MEAN_ANOMALY,EPHEMERIS_TYPE,CLASSIFICATION_TYPE,NORAD_CAT_ID,ELEMENT_SET_NO,REV_AT_EPOCH,BSTAR,MEAN_MOTION_DOT,MEAN_MOTION_DDOT
STARLINK-38033,2026-150A,2026-07-12T04:00:01.998720,15.80875877,.0001411,97.2848,31.3541,89.2126,236.6768,0,U,69739,999,281,-.49236E-3,-.93705E-3,0
STARLINK-38076,2026-150B,2026-07-12T04:00:01.998720,15.75289642,.0000886,97.2841,31.3355,95.3702,186.0459,0,U,69740,999,281,-.13856E-2,-.202834E-2,0
STARLINK-38074,2026-150C,2026-07-12T04:00:01.998720,15.80883297,.0001387,97.2849,31.3605,78.9391,261.6232,0,U,69741,999,281,-.54921E-3,-.104416E-2,0
STARLINK-38041,2026-150D,2026-07-12T04:00:01.998720,15.80887815,.0001034,97.2847,31.3624,114.8019,229.7069,0,U,69742,999,281,-.60584E-3,-.115047E-2,0
STARLINK-38087,2026-150E,2026-07-12T04:00:01.998720,15.80883814,.0001413,97.2846,31.3635,88.9974,260.1576,0,U,69743,999,281,-.56387E-3,-.107169E-2,0
STARLINK-38078,2026-150F,2026-07-12T04:00:01.998720,15.80885620,.0001243,97.2848,31.3651,83.6868,269.7392,0,U,69744,999,281,-.57773E-3,-.109773E-2,0
STARLINK-38047,2026-150G,2026-07-12T04:00:01.998720,15.80888457,.0001215,97.2847,31.3677,86.2184,271.7608,0,U,69745,999,281,-.61508E-3,-.116783E-2,0
STARLINK-38046,2026-150H,2026-07-12T04:00:01.998720,15.80896578,.0001294,97.2852,31.3726,97.5365,271.3640,0,U,69746,999,281,-.65636E-3,-.124549E-2,0
STARLINK-38067,2026-150J,2026-07-12T04:00:01.998720,15.75286189,.0000928,97.2848,31.3636,96.1691,251.2414,0,U,69747,999,281,-.13493E-2,-.197611E-2,0
STARLINK-37988,2026-150K,2026-07-12T04:00:01.998720,15.75281848,.0001267,97.2849,31.3683,83.7657,273.6670,0,U,69748,999,281,-.15788E-2,-.230305E-2,0
STARLINK-37987,2026-150L,2026-07-12T04:00:01.998720,15.77885859,.0001433,97.2847,31.3758,81.3117,297.2719,0,U,69749,999,281,-.14819E-1,-.2178855E-1,0
STARLINK-38037,2026-150M,2026-07-12T04:00:01.998720,15.80885928,.0001242,97.2848,31.3842,105.9234,288.9829,0,U,69750,999,281,-.60699E-3,-.115256E-2,0
STARLINK-38049,2026-150N,2026-07-12T04:00:01.998720,15.80882412,.0001342,97.2847,31.3859,98.3740,302.3197,0,U,69751,999,281,-.57944E-3,-.11008E-2,0
STARLINK-38029,2026-150P,2026-07-12T04:00:01.998720,15.80887765,.0001315,97.2846,31.4011,97.5629,335.8315,0,U,69752,999,281,-.60246E-3,-.114418E-2,0
STARLINK-37965,2026-150Q,2026-07-12T04:00:01.998720,15.78695186,.000173,97.2843,31.3987,73.9023,358.4192,0,U,69753,999,281,-.13154E-1,-.1985295E-1,0
STARLINK-38048,2026-150R,2026-07-12T04:00:01.998720,15.80879980,.0001292,97.2842,31.4020,82.1783,353.3300,0,U,69754,999,281,-.51914E-3,-.98753E-3,0
STARLINK-38006,2026-150S,2026-07-12T04:00:01.998720,15.80890948,.0000923,97.2842,31.4084,91.5573,359.5534,0,U,69755,999,281,-.65867E-3,-.124943E-2,0
STARLINK-38036,2026-150T,2026-07-12T04:00:01.998720,15.80885202,.0001238,97.2845,31.4123,94.3117,4.4821,0,U,69756,999,281,-.61359E-3,-.116486E-2,0
STARLINK-38058,2026-150U,2026-07-12T04:00:01.998720,15.80881491,.0001092,97.2845,31.4128,89.8152,10.4182,0,U,69757,999,281,-.55136E-3,-.104806E-2,0
STARLINK-38066,2026-150V,2026-07-12T04:00:01.998720,15.80895930,.0001457,97.2844,31.4131,86.2340,14.8509,0,U,69758,999,281,-.71461E-3,-.13542E-2,0
STARLINK-38035,2026-150W,2026-07-12T04:00:01.998720,15.80949705,.0001117,97.2844,31.4135,80.5353,21.2084,0,U,69759,999,281,-.10324E-2,-.194732E-2,0
STARLINK-38056,2026-150X,2026-07-12T04:00:01.998720,15.80895044,.0001294,97.2840,31.4221,93.6376,27.8121,0,U,69760,999,281,-.67017E-3,-.127119E-2,0
STARLINK-38069,2026-150Y,2026-07-12T04:00:01.998720,15.80885284,.0001424,97.2839,31.4308,93.5923,47.5288,0,U,69761,999,281,-.59327E-3,-.112685E-2,0
STARLINK-38019,2026-150Z,2026-07-12T04:00:01.998720,15.75815056,.0001125,97.2844,31.4271,59.9996,73.1344,0,U,69762,999,281,-.73888E-2,-.1023733E-1,0
KUIPER-00258,2026-151A,2026-07-12T04:00:01.998720,15.35430035,.0011663,51.8672,195.1592,158.6206,333.6737,0,U,69763,999,191,-.40234E-3,-.14456E-3,0
KUIPER-00526,2026-151B,2026-07-12T04:00:01.998720,15.37292005,.0006147,51.8763,195.0344,129.7215,64.2443,0,U,69764,999,167,-.44607E-3,-.16921E-3,0
KUIPER-00558,2026-151C,2026-07-12T04:00:01.998720,15.36783708,.0007714,51.8756,195.0691,141.0580,36.0885,0,U,69765,999,215,-.47199E-3,-.176E-3,0
KUIPER-00569,2026-151D,2026-07-12T04:00:01.998720,15.37442497,.0005194,51.8786,195.0188,127.5530,73.0535,0,U,69766,999,130,-.45177E-3,-.17209E-3,0
KUIPER-00589,2026-151E,2026-07-12T04:00:01.998720,15.37386782,.0005469,51.8754,195.0282,133.0280,64.3333,0,U,69767,999,218,-.44084E-3,-.16775E-3,0
KUIPER-00598,2026-151F,2026-07-12T04:00:01.998720,15.35392433,.0009606,51.8638,195.1475,156.1783,341.0449,0,U,69768,999,209,-.71265E-3,-.25221E-3,0
